NORAD_CAT_ID,OBJECT_NAME,OBJECT_TYPE,EPOCH,MEAN_MOTION,ECCENTRICITY,INCLINATION,RA_OF_ASC_NODE,ARG_OF_PERICENTER,MEAN_ANOMALY,BSTAR,MEAN_MOTION_DOT,MEAN_MOTION_DDOT,TLE_LINE0,TLE_LINE1,TLE_LINE2,SEMIMAJOR_AXIS,PERIOD,APOGEE,PERIGEE,DECAYED
51877.0,STARLINK-3556,PAYLOAD,2024-05-18 13:45:49,15.08842614,0.0001288,53.2153,82.4934,91.8606,268.2534,0.00071826,0.00011162,0.0,0 STARLINK-3556,1 51877U 22022AB  24139.57349301  .00011162  00000-0  71826-3 0  9995,2 51877  53.2153  82.4934 0001288  91.8606 268.2534 15.08842614123597,6917.872,95.437,540.628,538.846,0.0
51877.0,STARLINK-3556,PAYLOAD,2024-05-18 20:07:22,15.08839549,0.0001566,53.2162,81.3038,99.2849,260.8321,0.00053262,8.199e-05,0.0,0 STARLINK-3556,1 51877U 22022AB  24139.83845482  .00008199  00000-0  53262-3 0  9995,2 51877  53.2162  81.3038 0001566  99.2849 260.8321 15.08839549123630,6917.882,95.438,540.83,538.663,0.0
51877.0,STARLINK-3556,PAYLOAD,2024-05-19 05:39:41,15.0884594,0.0001522,53.2168,79.5197,97.3965,262.72,0.0005318,8.187e-05,0.0,0 STARLINK-3556,1 51877U 22022AB  24140.23589378  .00008187  00000-0  53180-3 0  9996,2 51877  53.2168  79.5197 0001522  97.3965 262.7200 15.08845940123696,6917.862,95.437,540.78,538.674,0.0
51877.0,STARLINK-3556,PAYLOAD,2024-05-19 19:58:09,15.08840862,0.0001237,53.2154,76.8448,75.6324,284.4805,0.00025662,3.799e-05,0.0,0 STARLINK-3556,1 51877U 22022AB  24140.83205650  .00003799  00000-0  25662-3 0  9998,2 51877  53.2154  76.8448 0001237  75.6324 284.4805 15.08840862123781,6917.878,95.438,540.598,538.887,0.0
51877.0,STARLINK-3556,PAYLOAD,2024-05-20 02:19:41,15.08853436,0.0001494,53.2169,75.6561,93.8422,266.2741,0.00062961,9.75e-05,0.0,0 STARLINK-3556,1 51877U 22022AB  24141.09701322  .00009750  00000-0  62961-3 0  9990,2 51877  53.2169  75.6561 0001494  93.8422 266.2741 15.08853436123829,6917.839,95.437,540.738,538.671,0.0
51877.0,STARLINK-3556,PAYLOAD,2024-05-21 02:10:29,15.08836775,0.0001526,53.2175,71.1934,103.2236,256.8926,0.00022359,3.272e-05,0.0,0 STARLINK-3556,1 51877U 22022AB  24142.09061916  .00003272  00000-0  22359-3 0  9999,2 51877  53.2175  71.1934 0001526 103.2236 256.8926 15.08836775123979,6917.89,95.438,540.811,538.7,0.0
51877.0,STARLINK-3556,PAYLOAD,2024-05-21 22:50:30,15.08840941,0.0001384,53.2175,67.3289,95.2692,264.8458,0.00030239,4.528e-05,0.0,0 STARLINK-3556,1 51877U 22022AB  24142.95174164  .00004528  00000-0  30239-3 0  9995,2 51877  53.2175  67.3289 0001384  95.2692 264.8458 15.08840941124102,6917.878,95.437,540.7,538.785,0.0
51877.0,STARLINK-3556,PAYLOAD,2024-05-22 02:01:16,15.08848457,0.0001506,53.2184,66.7357,99.8179,260.2983,0.00037743,5.725e-05,0.0,0 STARLINK-3556,1 51877U 22022AB  24143.08421891  .00005725  00000-0  37743-3 0  9999,2 51877  53.2184  66.7357 0001506  99.8179 260.2983 15.08848457124122,6917.855,95.437,540.761,538.678,0.0
51877.0,STARLINK-3556,PAYLOAD,2024-05-23 01:52:03,15.08844678,0.0001559,53.2183,62.2766,99.7875,260.3294,0.0002332,3.426e-05,0.0,0 STARLINK-3556,1 51877U 22022AB  24144.07782157  .00003426  00000-0  23320-3 0  9996,2 51877  53.2183  62.2766 0001559  99.7875 260.3294 15.08844678124279,6917.866,95.437,540.81,538.653,0.0
51877.0,STARLINK-3556,PAYLOAD,2024-05-23 05:02:50,15.0884602,0.0001513,53.218,61.6795,81.8604,278.256,0.00029164,4.357e-05,0.0,0 STARLINK-3556,1 51877U 22022AB  24144.21030164  .00004357  00000-0  29164-3 0  9992,2 51877  53.2180  61.6795 0001513  81.8604 278.2560 15.08846020124292,6917.862,95.437,540.774,538.68,0.0
51877.0,STARLINK-3556,PAYLOAD,2024-05-24 03:18:13,15.08855359,0.000164,53.2185,57.5116,87.4904,272.6275,0.00080129,0.00012493,0.0,0 STARLINK-3556,1 51877U 22022AB  24145.13765864  .00012493  00000-0  80129-3 0  9994,2 51877  53.2185  57.5116 0001640  87.4904 272.6275 15.08855359124436,6917.833,95.437,540.833,538.564,0.0
51877.0,STARLINK-3556,PAYLOAD,2024-05-24 22:22:51,15.08846818,0.0002176,53.2178,53.9458,127.7133,232.4057,0.00015479,2.177e-05,0.0,0 STARLINK-3556,1 51877U 22022AB  24145.93253749  .00002177  00000-0  15479-3 0  9990,2 51877  53.2178  53.9458 0002176 127.7133 232.4057 15.08846818124559,6917.86,95.437,541.23,538.219,0.0
51877.0,STARLINK-3556,PAYLOAD,2024-05-25 01:33:37,15.08845393,0.0001469,53.2173,53.3532,93.8494,266.2666,0.00022997,3.374e-05,0.0,0 STARLINK-3556,1 51877U 22022AB  24146.06501992  .00003374  00000-0  22997-3 0  9994,2 51877  53.2173  53.3532 0001469  93.8494 266.2666 15.08845393124578,6917.864,95.437,540.745,538.713,0.0
51877.0,STARLINK-3556,PAYLOAD,2024-05-25 11:05:56,15.08839157,0.0001453,53.2174,51.5748,90.8341,269.2817,3.9601e-05,3.42e-06,0.0,0 STARLINK-3556,1 51877U 22022AB  24146.46246318  .00000342  00000-0  39601-4 0  9999,2 51877  53.2174  51.5748 0001453  90.8341 269.2817 15.08839157124638,6917.883,95.438,540.753,538.743,0.0
51877.0,STARLINK-3556,PAYLOAD,2024-05-25 23:49:02,15.08832638,0.0001414,53.2168,49.193,106.9065,253.2083,-4.0274e-06,-3.52e-06,0.0,0 STARLINK-3556,1 51877U 22022AB  24146.99238572 -.00000352  00000-0 -40274-5 0  9992,2 51877  53.2168  49.1930 0001414 106.9065 253.2083 15.08832638124710,6917.903,95.438,540.746,538.79,0.0
51877.0,STARLINK-3556,PAYLOAD,2024-05-26 22:04:26,15.08841453,0.0001382,53.2167,45.0301,97.3738,262.7411,0.00034527,5.212e-05,0.0,0 STARLINK-3556,1 51877U 22022AB  24147.91975007  .00005212  00000-0  34527-3 0  9996,2 51877  53.2167  45.0301 0001382  97.3738 262.7411 15.08841453124850,6917.876,95.437,540.697,538.785,0.0
51877.0,STARLINK-3556,PAYLOAD,2024-05-27 02:50:35,15.08849443,0.0001358,53.2171,44.1373,93.3826,266.7321,0.00038428,5.835e-05,0.0,0 STARLINK-3556,1 51877U 22022AB  24148.11846717  .00005835  00000-0  38428-3 0  9999,2 51877  53.2171  44.1373 0001358  93.3826 266.7321 15.08849443124885,6917.852,95.437,540.656,538.777,0.0
51877.0,STARLINK-3556,PAYLOAD,2024-05-27 20:19:50,15.08837724,0.0001575,53.2175,40.8613,92.8375,267.2798,0.00049062,7.528e-05,0.0,0 STARLINK-3556,1 51877U 22022AB  24148.84711389  .00007528  00000-0  49062-3 0  9992,2 51877  53.2175  40.8613 0001575  92.8375 267.2798 15.08837724124998,6917.887,95.438,540.842,538.663,0.0
51877.0,STARLINK-3556,PAYLOAD,2024-05-27 21:55:14,15.08827847,0.0001606,53.2177,40.5638,94.6218,265.4957,0.00086127,0.00013441,0.0,0 STARLINK-3556,1 51877U 22022AB  24148.91336011  .00013441  00000-0  86127-3 0  9999,2 51877  53.2177  40.5638 0001606  94.6218 265.4957 15.08827847125000,6917.918,95.438,540.894,538.672,0.0
51877.0,STARLINK-3556,PAYLOAD,2024-05-28 02:41:23,15.08839688,0.0001498,53.2179,39.6723,98.1881,261.9281,0.00029358,4.387e-05,0.0,0 STARLINK-3556,1 51877U 22022AB  24149.11207189  .00004387  00000-0  29358-3 0  9997,2 51877  53.2179  39.6723 0001498  98.1881 261.9281 15.08839688125030,6917.881,95.438,540.783,538.71,0.0
51877.0,STARLINK-3556,PAYLOAD,2024-05-28 21:46:00,15.08847322,0.0001439,53.2177,36.1041,95.2523,264.8634,0.00013662,1.887e-05,0.0,0 STARLINK-3556,1 51877U 22022AB  24149.90694532  .00001887  00000-0  13662-3 0  9999,2 51877  53.2177  36.1041 0001439  95.2523 264.8634 15.08847322125150,6917.858,95.437,540.718,538.728,0.0
51877.0,STARLINK-3556,PAYLOAD,2024-05-29 21:36:47,15.08841303,0.0001363,53.2175,31.6456,89.4579,270.6569,3.6229e-05,2.89e-06,0.0,0 STARLINK-3556,1 51877U 22022AB  24150.90054778  .00000289  00000-0  36229-4 0  9993,2 51877  53.2175  31.6456 0001363  89.4579 270.6569 15.08841303125302,6917.876,95.437,540.684,538.798,0.0
51877.0,STARLINK-3556,PAYLOAD,2024-05-30 21:27:33,15.08848,0.000153,53.219,27.1936,110.0165,250.0992,0.00016233,2.297e-05,0.0,0 STARLINK-3556,1 51877U 22022AB  24151.89414271  .00002297  00000-0  16233-3 0  9993,2 51877  53.2190  27.1936 0001530 110.0165 250.0992 15.08848000125459,6917.856,95.437,540.779,538.663,0.0
51877.0,STARLINK-3556,PAYLOAD,2024-05-31 00:38:19,15.08853073,0.0001398,53.2183,26.5895,80.5358,279.5793,0.00020088,2.912e-05,0.0,0 STARLINK-3556,1 51877U 22022AB  24152.02661878  .00002912  00000-0  20088-3 0  9993,2 51877  53.2183  26.5895 0001398  80.5358 279.5793 15.08853073125478,6917.84,95.437,540.673,538.738,0.0
51877.0,STARLINK-3556,PAYLOAD,2024-05-31 21:18:21,15.08841731,0.0001564,53.2181,22.7282,81.2165,278.9004,4.1297e-05,3.69e-06,0.0,0 STARLINK-3556,1 51877U 22022AB  24152.88774530  .00000369  00000-0  41297-4 0  9997,2 51877  53.2181  22.7282 0001564  81.2165 278.9004 15.08841731125604,6917.875,95.437,540.822,538.658,0.0
51877.0,STARLINK-3556,PAYLOAD,2024-06-01 08:26:03,15.08838139,0.0001455,53.2177,20.6442,84.3062,275.8096,-2.6936e-05,-7.17e-06,0.0,0 STARLINK-3556,1 51877U 22022AB  24153.35142590 -.00000717  00000-0 -26936-4 0  9997,2 51877  53.2177  20.6442 0001455  84.3062 275.8096 15.08838139125675,6917.886,95.438,540.758,538.745,0.0
51877.0,STARLINK-3556,PAYLOAD,2024-06-01 22:44:31,15.08842019,0.0001422,53.2181,17.9692,80.3038,279.8115,-7.7339e-06,-4.11e-06,0.0,0 STARLINK-3556,1 51877U 22022AB  24153.94758862 -.00000411  00000-0 -77339-5 0  9992,2 51877  53.2181  17.9692 0001422  80.3038 279.8115 15.08842019125767,6917.874,95.437,540.723,538.755,0.0
51877.0,STARLINK-3556,PAYLOAD,2024-06-02 14:38:23,15.08833748,0.00013,53.2176,14.9947,92.9199,267.1942,6.5394e-05,7.53e-06,0.0,0 STARLINK-3556,1 51877U 22022AB  24154.60999347  .00000753  00000-0  65394-4 0  9995,2 51877  53.2176  14.9947 0001300  92.9199 267.1942 15.08833748125861,6917.899,95.438,540.664,538.865,0.0
51877.0,STARLINK-3556,PAYLOAD,2024-06-02 20:59:55,15.08837241,0.0001297,53.2173,13.8055,92.7669,267.3472,8.9426e-05,1.136e-05,0.0,0 STARLINK-3556,1 51877U 22022AB  24154.87495141  .00001136  00000-0  89426-4 0  9995,2 51877  53.2173  13.8055 0001297  92.7669 267.3472 15.08837241125908,6917.889,95.438,540.651,538.857,0.0
51877.0,STARLINK-3556,PAYLOAD,2024-06-03 00:10:41,15.08844764,0.000137,53.2172,13.2105,99.5652,260.5495,4.8064e-05,4.77e-06,0.0,0 STARLINK-3556,1 51877U 22022AB  24155.00742781  .00000477  00000-0  48064-4 0  9996,2 51877  53.2172  13.2105 0001370  99.5652 260.5495 15.08844764125926,6917.866,95.437,540.679,538.783,0.0
